JILIN-01 GAOFEN 3J      
1 46462U 20065J   21037.54608840  .00000198  00000-0  16236-4 0  9993
2 46462  97.5165  96.6041 0014451 149.3367 346.8904 15.09569689 21804
HAIYANG-2C              
1 46469U 20066A   21037.50785314 -.00000055  00000-0  23765-4 0  9997
2 46469  65.9965  46.9866 0005330 244.9573 115.0943 13.83374648 19139
HJ-2A                   
1 46478U 20067A   21037.48347267  .00000097  00000-0  21387-4 0  9999
2 46478  98.0330 118.1435 0001468  96.0741 264.0636 14.76453033 19523
HJ-2B                   
1 46479U 20067B   21037.44975245  .00000055  00000-0  15292-4 0  9991
2 46479  98.0357 118.2142 0001397  91.8308 268.3062 14.76455874 19527
GONETS-M 17             
1 46486U 20068A   21037.47644143  .00000015  00000-0  34750-4 0  9999
2 46486  82.5001 124.7417 0022745 344.6419  15.3968 12.42888810 16273
GONETS-M 18             
1 46487U 20068B   21037.53490078  .00000032  00000-0  16232-3 0  9996
2 46487  82.4953 124.6162 0019819 343.6165  16.4271 12.42816937 16270
GONETS-M 19             
1 46488U 20068C   21037.34486518  .00000038  00000-0  20121-3 0  9998
2 46488  82.4983 124.7280 0013464   0.0255   0.0828 12.42872891 16267
MEZNSAT                 
1 46489U 20068D   21037.52740361  .00000669  00000-0  53114-4 0  9997
2 46489  97.6810 335.9700 0019206 154.1579 293.6417 15.03738904 19687
YARILO 1                
1 46490U 20068E   21037.58088959  .00000384  00000-0  32436-4 0  9991
2 46490  97.6822 336.0193 0018824 155.4876 204.7273 15.03717881 19694
YARILO 2                
1 46491U 20068F   21037.38497337 -.00000062  00000-0  36767-7 0  9992
2 46491  97.6801 335.8150 0018403 156.7985 203.4074 15.03663626 19669
LACUNASAT-3             
1 46492U 20068G   21036.73193181 -.00000059  00000-0  24572-6 0  9997
2 46492  97.6821 335.1693 0018588 156.8709 266.6053 15.03662663 19541
DEKART                  
1 46493U 20068H   21037.25963121 -.00000057  00000-0  34171-6 0  9999
2 46493  97.6824 335.6769 0018845 156.3788 203.8313 15.03534928 19625
NORBI                   
1 46494U 20068J   21037.59949943 -.00000040  00000-0  16527-5 0  9999
2 46494  97.6839 335.9977 0018703 155.5675 204.6439 15.03466891 19671
SALSAT                  
1 46495U 20068K   21037.60920822  .00000127  00000-0  13886-4 0  9996
2 46495  97.6835 335.9829 0017975 148.7161 211.5136 15.03344617 19670
ICEYE-X7                
1 46496U 20068L   21037.45195150  .00001233  00000-0  95956-4 0  9995
2 46496  97.6798 335.7300 0016111 157.4758 269.2814 15.03013859 19642
ICEYE-X6                
1 46497U 20068M   21037.53985162 -.00006886  00000-0 -52987-3 0  9992
2 46497  97.6809 335.8202 0017781 164.4159 311.0486 15.01278187 19652
KEPLER-5 (AMIDALA)      
1 46498U 20068N   21037.62092704  .00000727  00000-0  59258-4 0  9999
2 46498  97.6826 335.7905 0014761 163.3403 196.8311 15.02498459 19660
KEPLER-4 (ANTILLES)     
1 46499U 20068P   21037.62347243  .00001059  00000-0  84187-4 0  9999
2 46499  97.6807 335.7825 0014765 166.1636 193.9998 15.02502840 19618
LEMUR-2-SLICERS         
1 46500U 20068Q   21037.55436986  .00000431  00000-0  36886-4 0  9993
2 46500  97.6819 335.7179 0014578 165.1766 194.9908 15.02589705 19607
LEMUR-2-DAYWZAGOODDAY   
1 46501U 20068R   21037.56148511  .00001702  00000-0  13254-3 0  9994
2 46501  97.6795 335.7062 0014131 169.6765 190.4754 15.02500036 19593
LEMUR-2-SUSURRUS        
1 46502U 20068S   21037.56565859  .00002308  00000-0  17805-3 0  9992
2 46502  97.6782 335.6939 0013443 173.8571 186.2829 15.02510281 19600
LEMUR-2-NICHOL          
1 46503U 20068T   21037.44181943  .00001819  00000-0  14204-3 0  9994
2 46503  97.6780 335.5475 0012568 179.2978 180.8264 15.02316408 19586
NETSAT-4                
1 46504U 20068U   21037.26330897 -.00000058  00000-0  19925-6 0  9992
2 46504  97.6775 335.3249 0009013 181.6875 178.4308 15.01959085 19543
NETSAT-3                
1 46505U 20068V   21037.26660619 -.00000054  00000-0  49979-6 0  9999
2 46505  97.6797 335.3155 0008033 178.7085 181.4163 15.01928881 19559
NETSAT-1                
1 46506U 20068W   21037.60321989  .00000017  00000-0  59017-5 0  9993
2 46506  97.6822 335.6359 0007562 172.7450 187.3872 15.01899050 19607
NETSAT-2                
1 46507U 20068X   21037.53812458  .00000020  00000-0  61087-5 0  9996
2 46507  97.6826 335.5716 0007669 173.0748 187.0586 15.01878122 19549
FLOCK 4V-16             
1 46527U 20061BD  21037.37165697  .00001645  00000-0  91646-4 0  9996
2 46527  97.4544 113.5310 0009886  53.1240 307.0897 15.14956901 19688
FLOCK 4V-15             
1 46528U 20061BE  21037.44126744  .00000615  00000-0  35135-4 0  9992
2 46528  97.4503 113.8252 0004604  85.1433 275.0326 15.16294355 20058
FLOCK 4V-17             
1 46529U 20061BF  21037.45710421  .00000912  00000-0  50633-4 0  9995
2 46529  97.4474 113.7598 0004576  73.6709 286.5026 15.16178855 19254
STARLINK-1644           
1 46532U 20070A   21037.58334491  .00103874  00000-0  68956-2 0  9998
2 46532  53.0316 233.4615 0001555  81.7507   4.3880 15.06371890  1754
STARLINK-1648           
1 46533U 20070B   21037.58334491 -.00272772  00000-0 -18952-1 0  9995
2 46533  53.0339 233.4649 0001464  84.1340 307.2303 15.06506033  1763
