OBJECT_NAME,OBJECT_ID,EPOCH,MEAN_MOTION,ECCENTRICITY,INCLINATION,RA_OF_ASC_NODE,ARG_OF_PERICENTER,MEAN_ANOMALY,EPHEMERIS_TYPE,CLASSIFICATION_TYPE,NORAD_CAT_ID,ELEMENT_SET_NO,REV_AT_EPOCH,BSTAR,MEAN_MOTION_DOT,MEAN_MOTION_DDOT
JILIN-01 GAOFEN 3J,2020-065J,2021-02-06T13:06:22.037760,15.09569689,.0014451,97.5165,96.6041,149.3367,346.8904,0,U,46462,999,2180,.16236E-4,.198E-5,0
HAIYANG-2C,2020-066A,2021-02-06T12:11:18.511296,13.83374648,.000533,65.9965,46.9866,244.9573,115.0943,0,U,46469,999,1913,.23765E-4,-.55E-6,0
HJ-2A,2020-067A,2021-02-06T11:36:12.038688,14.76453033,.0001468,98.0330,118.1435,96.0741,264.0636,0,U,46478,999,1952,.21387E-4,.97E-6,0
HJ-2B,2020-067B,2021-02-06T10:47:38.611680,14.76455874,.0001397,98.0357,118.2142,91.8308,268.3062,0,U,46479,999,1952,.15292E-4,.55E-6,0
GONETS-M 17,2020-068A,2021-02-06T11:26:04.539552,12.42888810,.0022745,82.5001,124.7417,344.6419,15.3968,0,U,46486,999,1627,.3475E-4,.15E-6,0
GONETS-M 18,2020-068B,2021-02-06T12:50:15.427392,12.42816937,.0019819,82.4953,124.6162,343.6165,16.4271,0,U,46487,999,1627,.16232E-3,.32E-6,0
GONETS-M 19,2020-068C,2021-02-06T08:16:36.351552,12.42872891,.0013464,82.4983,124.7280,0.0255,0.0828,0,U,46488,999,1626,.20121E-3,.38E-6,0
MEZNSAT,2020-068D,2021-02-06T12:39:27.671904,15.03738904,.0019206,97.6810,335.9700,154.1579,293.6417,0,U,46489,999,1968,.53114E-4,.669E-5,0
YARILO 1,2020-068E,2021-02-06T13:56:28.860576,15.03717881,.0018824,97.6822,336.0193,155.4876,204.7273,0,U,46490,999,1969,.32436E-4,.384E-5,0
YARILO 2,2020-068F,2021-02-06T09:14:21.699168,15.03663626,.0018403,97.6801,335.8150,156.7985,203.4074,0,U,46491,999,1966,.36767E-7,-.62E-6,0
LACUNASAT-3,2020-068G,2021-02-05T17:33:58.908384,15.03662663,.0018588,97.6821,335.1693,156.8709,266.6053,0,U,46492,999,1954,.24572E-6,-.59E-6,0
DEKART,2020-068H,2021-02-06T06:13:52.136544,15.03534928,.0018845,97.6824,335.6769,156.3788,203.8313,0,U,46493,999,1962,.34171E-6,-.57E-6,0
NORBI,2020-068J,2021-02-06T14:23:16.750752,15.03466891,.0018703,97.6839,335.9977,155.5675,204.6439,0,U,46494,999,1967,.16527E-5,-.4E-6,0
SALSAT,2020-068K,2021-02-06T14:37:15.590208,15.03344617,.0017975,97.6835,335.9829,148.7161,211.5136,0,U,46495,999,1967,.13886E-4,.127E-5,0
ICEYE-X7,2020-068L,2021-02-06T10:50:48.609600,15.03013859,.0016111,97.6798,335.7300,157.4758,269.2814,0,U,46496,999,1964,.95956E-4,.1233E-4,0
ICEYE-X6,2020-068M,2021-02-06T12:57:23.179968,15.01278187,.0017781,97.6809,335.8202,164.4159,311.0486,0,U,46497,999,1965,-.52987E-3,-.6886E-4,0
KEPLER-5 (AMIDALA),2020-068N,2021-02-06T14:54:08.096256,15.02498459,.0014761,97.6826,335.7905,163.3403,196.8311,0,U,46498,999,1966,.59258E-4,.727E-5,0
KEPLER-4 (ANTILLES),2020-068P,2021-02-06T14:57:48.017952,15.02502840,.0014765,97.6807,335.7825,166.1636,193.9998,0,U,46499,999,1961,.84187E-4,.1059E-4,0
LEMUR-2-SLICERS,2020-068Q,2021-02-06T13:18:17.555904,15.02589705,.0014578,97.6819,335.7179,165.1766,194.9908,0,U,46500,999,1960,.36886E-4,.431E-5,0
LEMUR-2-DAYWZAGOODDAY,2020-068R,2021-02-06T13:28:32.313504,15.02500036,.0014131,97.6795,335.7062,169.6765,190.4754,0,U,46501,999,1959,.13254E-3,.1702E-4,0
LEMUR-2-SUSURRUS,2020-068S,2021-02-06T13:34:32.902176,15.02510281,.0013443,97.6782,335.6939,173.8571,186.2829,0,U,46502,999,1960,.17805E-3,.2308E-4,0
LEMUR-2-NICHOL,2020-068T,2021-02-06T10:36:13.198752,15.02316408,.0012568,97.6780,335.5475,179.2978,180.8264,0,U,46503,999,1958,.14204E-3,.1819E-4,0
NETSAT-4,2020-068U,2021-02-06T06:19:09.895008,15.01959085,.0009013,97.6775,335.3249,181.6875,178.4308,0,U,46504,999,1954,.19925E-6,-.58E-6,0
NETSAT-3,2020-068V,2021-02-06T06:23:54.774816,15.01928881,.0008033,97.6797,335.3155,178.7085,181.4163,0,U,46505,999,1955,.49979E-6,-.54E-6,0
NETSAT-1,2020-068W,2021-02-06T14:28:38.198496,15.01899050,.0007562,97.6822,335.6359,172.7450,187.3872,0,U,46506,999,1960,.59017E-5,.17E-6,0
NETSAT-2,2020-068X,2021-02-06T12:54:53.963712,15.01878122,.0007669,97.6826,335.5716,173.0748,187.0586,0,U,46507,999,1954,.61087E-5,.2E-6,0
FLOCK 4V-16,2020-061BD,2021-02-06T08:55:11.162208,15.14956901,.0009886,97.4544,113.5310,53.1240,307.0897,0,U,46527,999,1968,.91646E-4,.1645E-4,0
FLOCK 4V-15,2020-061BE,2021-02-06T10:35:25.506816,15.16294355,.0004604,97.4503,113.8252,85.1433,275.0326,0,U,46528,999,2005,.35135E-4,.615E-5,0
FLOCK 4V-17,2020-061BF,2021-02-06T10:58:13.803744,15.16178855,.0004576,97.4474,113.7598,73.6709,286.5026,0,U,46529,999,1925,.50633E-4,.912E-5,0
STARLINK-1644,2020-070A,2021-02-06T14:00:01.000224,15.06371890,.0001555,53.0316,233.4615,81.7507,4.3880,0,U,46532,999,175,.68956E-2,.103874E-2,0
STARLINK-1648,2020-070B,2021-02-06T14:00:01.000224,15.06506033,.0001464,53.0339,233.4649,84.1340,307.2303,0,U,46533,999,176,-.18952E-1,-.272772E-2,0
